start=new Date('2022-09-02T00:00:00.000Z').valueOf();
sats=[{"MEAN_MOTION_DOT":"-0.00000022","OBJECT_ID":"2020-035BD","MEAN_ELEMENT_THEORY":"SGP4","FILE":"3554009","PERIAPSIS":"546.270","SITE":"AFETR","REV_AT_EPOCH":"12549","ARG_OF_PERICENTER":"97.9967","TLE_LINE1":"1 45708U 20035BD  22244.79296523 -.00000022  00000-0  17410-4 0  9993","DECAY_DATE":null,"OBJECT_NAME":"STARLINK-1418","RCS_SIZE":"LARGE","ECCENTRICITY":"0.00014130","BSTAR":"0.00001741000000","CLASSIFICATION_TYPE":"U","ELEMENT_SET_NO":"999","GP_ID":"211500230","TIME_SYSTEM":"UTC","LAUNCH_DATE":"2020-06-04","OBJECT_TYPE":"PAYLOAD","TLE_LINE2":"2 45708  53.0561  44.7339 0001413  97.9967 262.1182 15.06388604125496","MEAN_MOTION_DDOT":"0.0000000000000","COUNTRY_CODE":"US","RA_OF_ASC_NODE":"44.7339","REF_FRAME":"TEME","MEAN_MOTION":"15.06388604","MEAN_ANOMALY":"262.1182","SEMIMAJOR_AXIS":"6925.383","NORAD_CAT_ID":"45708","INCLINATION":"53.0561","EPOCH":"2022-09-01T19:01:52.195872","APOAPSIS":"548.227","EPHEMERIS_TYPE":"0","CENTER_NAME":"EARTH","PERIOD":"95.593"},{"OBJECT_NAME":"STARLINK-1421","DECAY_DATE":null,"SITE":"AFETR","REV_AT_EPOCH":"12541","ARG_OF_PERICENTER":"92.9924","TLE_LINE1":"1 45709U 20035BE  22244.56443732  .00000786  00000-0  71660-4 0  9998","FILE":"3554009","MEAN_ELEMENT_THEORY":"SGP4","PERIAPSIS":"546.348","OBJECT_ID":"2020-035BE","MEAN_MOTION_DOT":"0.00000786","ELEMENT_SET_NO":"999","CLASSIFICATION_TYPE":"U","ECCENTRICITY":"0.00012810","BSTAR":"0.00007166000000","RCS_SIZE":"LARGE","COUNTRY_CODE":"US","RA_OF_ASC_NODE":"45.7815","REF_FRAME":"TEME","MEAN_MOTION_DDOT":"0.0000000000000","TLE_LINE2":"2 45709  53.0554  45.7815 0001281  92.9924 267.1211 15.06392939125416","OBJECT_TYPE":"PAYLOAD","TIME_SYSTEM":"UTC","LAUNCH_DATE":"2020-06-04","GP_ID":"211501481","PERIOD":"95.593","EPHEMERIS_TYPE":"0","CENTER_NAME":"EARTH","APOAPSIS":"548.122","EPOCH":"2022-09-01T13:32:47.384448","INCLINATION":"53.0554","NORAD_CAT_ID":"45709","SEMIMAJOR_AXIS":"6925.370","MEAN_MOTION":"15.06392939","MEAN_ANOMALY":"267.1211"},{"NORAD_CAT_ID":"45710","SEMIMAJOR_AXIS":"6925.357","MEAN_MOTION":"15.06397136","MEAN_ANOMALY":"273.8946","PERIOD":"95.592","EPHEMERIS_TYPE":"0","CENTER_NAME":"EARTH","APOAPSIS":"547.913","EPOCH":"2022-09-01T15:03:02.266848","INCLINATION":"53.0553","OBJECT_TYPE":"PAYLOAD","TIME_SYSTEM":"UTC","LAUNCH_DATE":"2020-06-04","GP_ID":"211501232","COUNTRY_CODE":"US","RA_OF_ASC_NODE":"45.5033","REF_FRAME":"TEME","MEAN_MOTION_DDOT":"0.0000000000000","TLE_LINE2":"2 45710  53.0553  45.5033 0000997  86.2157 273.8946 15.06397136125462","CLASSIFICATION_TYPE":"U","BSTAR":"0.00021637000000","ECCENTRICITY":"0.00009970","RCS_SIZE":"LARGE","ELEMENT_SET_NO":"999","MEAN_ELEMENT_THEORY":"SGP4","FILE":"3554009","PERIAPSIS":"546.532","MEAN_MOTION_DOT":"0.00002943","OBJECT_ID":"2020-035BF","OBJECT_NAME":"STARLINK-1423","DECAY_DATE":null,"REV_AT_EPOCH":"12546","SITE":"AFETR","TLE_LINE1":"1 45710U 20035BF  22244.62710957  .00002943  00000-0  21637-3 0  9998","ARG_OF_PERICENTER":"86.2157"},{"RCS_SIZE":"LARGE","BSTAR":"-0.00049685000000","ECCENTRICITY":"0.00012970","CLASSIFICATION_TYPE":"U","ELEMENT_SET_NO":"999","OBJECT_ID":"2020-035BG","MEAN_MOTION_DOT":"-0.00007682","FILE":"3553427","MEAN_ELEMENT_THEORY":"SGP4","PERIAPSIS":"546.193","SITE":"AFETR","REV_AT_EPOCH":"12503","TLE_LINE1":"1 45711U 20035BG  22244.47595087 -.00007682  00000-0 -49685-3 0  9997","ARG_OF_PERICENTER":"77.9250","DECAY_DATE":null,"OBJECT_NAME":"STARLINK-1433","MEAN_MOTION":"15.06439801","MEAN_ANOMALY":"282.1885","SEMIMAJOR_AXIS":"6925.227","NORAD_CAT_ID":"45711","INCLINATION":"53.0556","EPOCH":"2022-09-01T11:25:22.155168","APOAPSIS":"547.990","EPHEMERIS_TYPE":"0","CENTER_NAME":"EARTH","PERIOD":"95.590","GP_ID":"211442054","TIME_SYSTEM":"UTC","LAUNCH_DATE":"2020-06-04","OBJECT_TYPE":"PAYLOAD","TLE_LINE2":"2 45711  53.0556  46.1645 0001297  77.9250 282.1885 15.06439801125031","MEAN_MOTION_DDOT":"0.0000000000000","COUNTRY_CODE":"US","RA_OF_ASC_NODE":"46.1645","REF_FRAME":"TEME"},{"OBJECT_NAME":"STARLINK-1434","DECAY_DATE":null,"ARG_OF_PERICENTER":"92.2622","TLE_LINE1":"1 45712U 20035BH  22244.60497677  .00002221  00000-0  16797-3 0  9999","SITE":"AFETR","REV_AT_EPOCH":"12546","PERIAPSIS":"546.166","MEAN_ELEMENT_THEORY":"SGP4","FILE":"3554009","OBJECT_ID":"2020-035BH","MEAN_MOTION_DOT":"0.00002221","ELEMENT_SET_NO":"999","CLASSIFICATION_TYPE":"U","ECCENTRICITY":"0.00015030","BSTAR":"0.00016797000000","RCS_SIZE":"LARGE","RA_OF_ASC_NODE":"45.5916","REF_FRAME":"TEME","COUNTRY_CODE":"US","MEAN_MOTION_DDOT":"0.0000000000000","TLE_LINE2":"2 45712  53.0543  45.5916 0001503  92.2622 267.8539 15.06402055125469","OBJECT_TYPE":"PAYLOAD","LAUNCH_DATE":"2020-06-04","TIME_SYSTEM":"UTC","GP_ID":"211500731","PERIOD":"95.592","CENTER_NAME":"EARTH","EPHEMERIS_TYPE":"0","APOAPSIS":"548.248","INCLINATION":"53.0543","EPOCH":"2022-09-01T14:31:09.992928","NORAD_CAT_ID":"45712","SEMIMAJOR_AXIS":"6925.342","MEAN_ANOMALY":"267.8539","MEAN_MOTION":"15.06402055"},{"APOAPSIS":"548.140","EPOCH":"2022-09-01T19:46:58.423584","INCLINATION":"53.0548","PERIOD":"95.592","EPHEMERIS_TYPE":"0","CENTER_NAME":"EARTH","MEAN_MOTION":"15.06401130","MEAN_ANOMALY":"265.2658","NORAD_CAT_ID":"45713","SEMIMAJOR_AXIS":"6925.345","MEAN_MOTION_DDOT":"0.0000000000000","TLE_LINE2":"2 45713  53.0548  64.5888 0001343  94.8484 265.2658 15.06401130125209","COUNTRY_CODE":"US","RA_OF_ASC_NODE":"64.5888","REF_FRAME":"TEME","TIME_SYSTEM":"UTC","LAUNCH_DATE":"2020-06-04","GP_ID":"211500982","OBJECT_TYPE":"PAYLOAD","ELEMENT_SET_NO":"999","RCS_SIZE":"LARGE","CLASSIFICATION_TYPE":"U","BSTAR":"0.00007307700000","ECCENTRICITY":"0.00013430","DECAY_DATE":null,"SITE":"AFETR","REV_AT_EPOCH":"12520","ARG_OF_PERICENTER":"94.8484","TLE_LINE1":"1 45713U 20035BJ  22244.82428731  .00000807  00000-0  73077-4 0  9992","OBJECT_NAME":"STARLINK-1436","MEAN_ELEMENT_THEORY":"SGP4","FILE":"3554009","PERIAPSIS":"546.280","OBJECT_ID":"2020-035BJ","MEAN_MOTION_DOT":"0.00000807"},{"GP_ID":"211501732","TIME_SYSTEM":"UTC","LAUNCH_DATE":"2020-06-04","OBJECT_TYPE":"PAYLOAD","TLE_LINE2":"2 45714  53.0553  44.6463 0001413  86.0265 274.0886 15.06394294125496","MEAN_MOTION_DDOT":"0.0000000000000","COUNTRY_CODE":"US","REF_FRAME":"TEME","RA_OF_ASC_NODE":"44.6463","MEAN_MOTION":"15.06394294","MEAN_ANOMALY":"274.0886","SEMIMAJOR_AXIS":"6925.366","NORAD_CAT_ID":"45714","EPOCH":"2022-09-01T19:33:42.813504","INCLINATION":"53.0553","APOAPSIS":"548.210","EPHEMERIS_TYPE":"0","CENTER_NAME":"EARTH","PERIOD":"95.593","OBJECT_ID":"2020-035BK","MEAN_MOTION_DOT":"0.00000713","FILE":"3554009","MEAN_ELEMENT_THEORY":"SGP4","PERIAPSIS":"546.252","REV_AT_EPOCH":"12549","SITE":"AFETR","TLE_LINE1":"1 45714U 20035BK  22244.81507886  .00000713  00000-0  66793-4 0  9994","ARG_OF_PERICENTER":"86.0265","DECAY_DATE":null,"OBJECT_NAME":"STARLINK-1437","RCS_SIZE":"LARGE","BSTAR":"0.00006679300000","ECCENTRICITY":"0.00014130","CLASSIFICATION_TYPE":"U","ELEMENT_SET_NO":"999"},{"TLE_LINE2":"2 45730  53.0524 245.2038 0001554  72.3478 287.7680 15.06401890122524","MEAN_MOTION_DDOT":"0.0000000000000","COUNTRY_CODE":"US","RA_OF_ASC_NODE":"245.2038","REF_FRAME":"TEME","GP_ID":"211500482","TIME_SYSTEM":"UTC","LAUNCH_DATE":"2020-06-13","OBJECT_TYPE":"PAYLOAD","EPOCH":"2022-09-01T16:38:32.444448","INCLINATION":"53.0524","APOAPSIS":"548.284","EPHEMERIS_TYPE":"0","CENTER_NAME":"EARTH","PERIOD":"95.592","MEAN_MOTION":"15.06401890","MEAN_ANOMALY":"287.7680","SEMIMAJOR_AXIS":"6925.343","NORAD_CAT_ID":"45730","REV_AT_EPOCH":"12252","SITE":"AFETR","TLE_LINE1":"1 45730U 20038A   22244.69343107  .00001497  00000-0  11939-3 0  9996","ARG_OF_PERICENTER":"72.3478","DECAY_DATE":null,"OBJECT_NAME":"STARLINK-1461","OBJECT_ID":"2020-038A","MEAN_MOTION_DOT":"0.00001497","FILE":"3554009","MEAN_ELEMENT_THEORY":"SGP4","PERIAPSIS":"546.132","ELEMENT_SET_NO":"999","RCS_SIZE":"LARGE","ECCENTRICITY":"0.00015540","BSTAR":"0.00011939000000","CLASSIFICATION_TYPE":"U"},{"LAUNCH_DATE":"2020-06-13","TIME_SYSTEM":"UTC","GP_ID":"211465053","OBJECT_TYPE":"PAYLOAD","MEAN_MOTION_DDOT":"0.0000000000000","TLE_LINE2":"2 45731  53.0540 246.3197 0001295  68.9328 291.1800 15.06401388122477","RA_OF_ASC_NODE":"246.3197","REF_FRAME":"TEME","COUNTRY_CODE":"US","MEAN_ANOMALY":"291.1800","MEAN_MOTION":"15.06401388","NORAD_CAT_ID":"45731","SEMIMAJOR_AXIS":"6925.344","APOAPSIS":"548.106","EPOCH":"2022-09-01T10:37:37.394688","INCLINATION":"53.0540","PERIOD":"95.592","CENTER_NAME":"EARTH","EPHEMERIS_TYPE":"0","PERIAPSIS":"546.312","MEAN_ELEMENT_THEORY":"SGP4","FILE":"3553574","OBJECT_ID":"2020-038B","MEAN_MOTION_DOT":"-0.00000132","DECAY_DATE":null,"ARG_OF_PERICENTER":"68.9328","TLE_LINE1":"1 45731U 20038B   22244.44279392 -.00000132  00000-0  10026-4 0  9997","SITE":"AFETR","REV_AT_EPOCH":"12247","OBJECT_NAME":"STARLINK-1465","RCS_SIZE":"LARGE","CLASSIFICATION_TYPE":"U","BSTAR":"0.00001002600000","ECCENTRICITY":"0.00012950","ELEMENT_SET_NO":"999"},{"GP_ID":"211500983","LAUNCH_DATE":"2020-06-13","TIME_SYSTEM":"UTC","OBJECT_TYPE":"PAYLOAD","TLE_LINE2":"2 45732  53.0542 245.1754 0001541  67.8399 292.2754 15.06397087122511","MEAN_MOTION_DDOT":"0.0000000000000","RA_OF_ASC_NODE":"245.1754","REF_FRAME":"TEME","COUNTRY_CODE":"US","MEAN_ANOMALY":"292.2754","MEAN_MOTION":"15.06397087","SEMIMAJOR_AXIS":"6925.357","NORAD_CAT_ID":"45732","INCLINATION":"53.0542","EPOCH":"2022-09-01T16:43:52.008672","APOAPSIS":"548.290","CENTER_NAME":"EARTH","EPHEMERIS_TYPE":"0","PERIOD":"95.592","OBJECT_ID":"2020-038C","MEAN_MOTION_DOT":"-0.00000290","PERIAPSIS":"546.155","FILE":"3554009","MEAN_ELEMENT_THEORY":"SGP4","TLE_LINE1":"1 45732U 20038C   22244.69712973 -.00000290  00000-0 -58129-6 0  9996","ARG_OF_PERICENTER":"67.8399","SITE":"AFETR","REV_AT_EPOCH":"12251","DECAY_DATE":null,"OBJECT_NAME":"STARLINK-1466","RCS_SIZE":"LARGE","BSTAR":"-0.00000058129000","ECCENTRICITY":"0.00015410","CLASSIFICATION_TYPE":"U","ELEMENT_SET_NO":"999"}];
